OBJECT_NAME,OBJECT_ID,EPOCH,MEAN_MOTION,ECCENTRICITY,INCLINATION,RA_OF_ASC_NODE,ARG_OF_PERICENTER,MEAN_ANOMALY,EPHEMERIS_TYPE,CLASSIFICATION_TYPE,NORAD_CAT_ID,ELEMENT_SET_NO,REV_AT_EPOCH,BSTAR,MEAN_MOTION_DOT,MEAN_MOTION_DDOT
GREENCUBE (IO-117),2022-080E,2026-07-11T07:23:26.297664,6.42583311,.0009046,70.1420,289.8580,284.3679,75.5976,0,U,53109,999,9361,0,-.3E-7,0
SITRO-AIS 5 (KATYS),2023-091L,2026-07-11T17:32:03.693120,15.30015021,.00110332,97.5055,256.8705,24.6119,335.5646,0,U,57176,999,16809,.25567859E-3,.7363E-4,0
SITRO-AIS 6 (CHIRKIN),2023-091AC,2026-07-11T18:24:20.540160,15.26397254,.00115282,97.5061,255.8942,28.3058,331.8804,0,U,57192,999,16803,.22471204E-3,.5783E-4,0
SITRO-AIS 8 (ANOKHIN),2023-091AD,2026-07-11T18:27:38.742624,15.32797970,.00098805,97.5050,258.6001,20.3543,339.8091,0,U,57193,999,16821,.25399528E-3,.7977E-4,0
SITRO-AIS 7 (FARTUSHNIY),2023-091AE,2026-07-11T18:36:14.522976,15.26072944,.00114852,97.5057,255.7145,29.4173,330.7710,0,U,57194,999,16802,.22367281E-3,.5699E-4,0
SITRO-AIS 10 (BURDAEV),2023-091AK,2026-07-11T18:14:50.991360,15.39540627,.00051604,97.5076,263.9039,355.8219,4.2982,0,U,57199,999,16854,.30376816E-3,.11862E-3,0
SITRO-AIS 9 (SHCHUKIN),2023-091AM,2026-07-11T12:49:52.160736,15.39022129,.00054551,97.5073,263.3831,356.9586,3.1625,0,U,57201,999,16849,.3038545E-3,.11665E-3,0
SITRO-AIS 12 (SMIRENNIY),2023-091AQ,2026-07-11T17:10:30.969408,15.39322433,.00049685,97.5087,264.0512,349.1443,10.9694,0,U,57204,999,16854,.29824505E-3,.1156E-3,0
SITRO-AIS 11 (SHEFFER),2023-091AU,2026-07-11T17:19:54.073632,15.39764266,.00048461,97.5086,264.3202,348.3834,11.7299,0,U,57208,999,16856,.29331517E-3,.11534E-3,0
SITRO-AIS 25,2024-039R,2026-07-11T18:18:45.972576,14.93630126,.01425365,95.3895,251.9806,241.6603,117.0186,0,U,59066,999,12839,.1274887E-3,.1608E-4,0
SITRO-AIS 26,2024-039S,2026-07-11T18:25:36.926400,14.93422319,.01428748,95.3896,251.8764,242.2611,116.4064,0,U,59067,999,12838,.13364726E-3,.1679E-4,0
SITRO-AIS 27,2024-039T,2026-07-11T19:09:15.484032,14.93847804,.014195,95.3900,252.1806,240.6999,117.9980,0,U,59068,999,12841,.12936122E-3,.1639E-4,0
SITRO-AIS 28,2024-039U,2026-07-11T18:35:59.203392,14.93880407,.01418522,95.3898,252.2133,240.6089,118.0912,0,U,59071,999,12841,.1521005E-3,.1935E-4,0
GRBBETA,2024-128C,2026-07-11T07:27:10.573056,15.06792341,.00375247,61.9892,131.6189,139.8192,220.5686,0,U,60237,999,10990,.16150702E-3,.2233E-4,0
OOV-CUBE (TUBSAT-30),2024-128F,2026-07-11T09:47:33.954432,15.02864718,.00415826,61.9942,141.1095,139.1306,221.2916,0,U,60240,999,10975,.10330684E-3,.1201E-4,0
ROBUSTA-3A (MEDITERRANEE),2024-128J,2026-07-11T06:38:14.041824,15.11950960,.0038425,61.9858,123.0385,133.2225,227.2090,0,U,60243,999,11006,.2790688E-3,.4666E-4,0
LASARSAT,2024-247Q,2026-07-11T04:32:50.416224,15.47861056,.00068751,44.9745,127.1862,135.1375,225.0072,0,U,62391,999,8703,.43320782E-3,.22765E-3,0
CROCUBE,2024-247T,2026-07-10T04:33:02.620224,15.49924104,.00069141,44.9700,129.7539,137.1599,222.9832,0,U,62394,999,8691,.58811806E-3,.33442E-3,0
FORESAIL-1 PRIME,2025-276DS,2026-07-11T18:26:45.362112,15.18920146,.00031429,97.4195,265.5912,52.4628,307.6892,0,U,66778,999,3413,.13553548E-3,.2762E-4,0
KNACKSAT-2,1998-067XZ,2026-07-11T08:33:41.694048,15.62129323,.00081939,51.6254,172.7064,314.9456,45.0873,0,U,67683,999,2405,.40006392E-3,.35473E-3,0
